#aV2010 12 20  0  0   .00000000      96 DD+AD WGS84 FIT  NGA
## 1615  86400.00000000   900.00000000 55550  .0000000000000
+   32     1  2  3  4  5  6  7  8  9 10 11 12 13 14 15 16 17
+         18 19 20 21 22 23 24 25 26 27 28 29 30 31 32  0  0
+          0  0  0  0  0  0  0  0  0  0  0  0  0  0  0  0  0
+          0  0  0  0  0  0  0  0  0  0  0  0  0  0  0  0  0
+          0  0  0  0  0  0  0  0  0  0  0  0  0  0  0  0  0
++         0  0  0  0  0  0  0  0  0  0  0  0  0  0  0  0  0
++         0  0  0  0  0  0  0  0  0  0  0  0  0  0  0  0  0
++         0  0  0  0  0  0  0  0  0  0  0  0  0  0  0  0  0
++         0  0  0  0  0  0  0  0  0  0  0  0  0  0  0  0  0
++         0  0  0  0  0  0  0  0  0  0  0  0  0  0  0  0  0
%c cc cc ccc ccc cccc cccc cccc cccc ccccc ccccc ccccc ccccc
%c cc cc ccc ccc cccc cccc cccc cccc ccccc ccccc ccccc ccccc
%f  0.0000000  0.000000000  0.00000000000  0.000000000000000
%f  0.0000000  0.000000000  0.00000000000  0.000000000000000
%i    0    0    0    0      0      0      0      0         0
%i    0    0    0    0      0      0      0      0         0
/*      NGA, ST. LOUIS,MO.                                  
/*   EPHEMERIS COMPUTED FROM  3 DAYS OF DATA                
/* CCCCCCCCCCCCCCCCCCCCCCCCCCCCCCCCCCCCCCCCCCCCCCCCCCCCCCCCC
/* CCCCCCCCCCCCCCCCCCCCCCCCCCCCCCCCCCCCCCCCCCCCCCCCCCCCCCCCC
*  2010 12 20  9  0   .00000000                                                 
P  1  22515.677419   2830.835950  13790.843587   -192.866407                    
V  1  13932.506112  10996.641576 -24674.756544      -.033659                    
P  2 -22873.756522  12971.344784    413.874319    309.746416                    
V  2  -2359.537798  -3187.517635 -31564.015757       .023144                    
P  3  11176.851317 -16652.162611  16850.368428    651.112306                    
V  3   4598.868231  22082.991044  18661.981900       .052965                    
P  4 -24564.870600   5216.359077  -9379.983719    249.581633                    
V  4   8877.283665  -7933.840536 -27915.789234       .098184                    
P  5 -14375.820250   8292.651009  20740.350606    -85.751159                    
V  5 -21951.999970 -14628.941367  -9259.476122      -.059659                    
P  6  14004.874441 -11925.865291  19255.439066    387.066500                    
V  6   2075.332508  24231.254130  13800.847316      -.089785                    
P  7 -11220.715735 -10712.993994  21588.705961       .618077                    
V  7  24056.211102 -12981.176485   5867.836660       .004773                    
P  8 -20715.806276  -2845.193757  16716.878056      7.089694                    
V  8  18859.416148  -9067.787187  21317.896704      -.000258                    
P  9  -8603.575786  18364.197543 -17686.884833     49.981104                    
V  9 -19189.948936   9435.231385  19755.699642       .024607                    
P 10 -23213.913244  -4928.717536  12091.222398    -60.868325                    
V 10 -11696.187814 -10525.659398 -25943.411771      -.010514                    
P 11   3301.197368 -20812.295366 -16275.091601   -112.744437                    
V 11  17442.611201 -11307.838411  18708.825720      -.029779                    
P 12   1880.692246  17390.338914 -19997.367487    -43.215601                    
V 12 -21838.643128 -12979.620619 -13166.728031       .034132                    
P 13  -5988.098638 -22343.088748  12876.386028    288.539944                    
V 13   3399.205800 -16261.417716 -26405.692054      -.011762                    
P 14  13974.409884   5713.988988 -21706.653602    117.095036                    
V 14  -2750.458847  27725.750195   5358.116393       .030986                    
P 15  -3808.730832  25780.495300   4720.546189   -170.037462                    
V 15  -3053.497499  -6058.719819  30885.334095       .041279                    
P 16  17899.918302  -3828.599210  19379.680779   -135.888940                    
V 16  19733.290381  14395.005612 -15131.347817      -.031187                    
P 17 -14171.486554  -7961.558269 -20932.194086    180.057708                    
V 17   2322.271923 -26706.157117   8318.412427       .007657                    
P 18  19784.884725  17373.542795   5075.111572    111.292263                    
V 18  -6786.279493   -640.775177  30063.221388       .021275                    
P 19   8087.818216 -23987.247572   7460.594064    -93.722659                    
V 19   1868.594544   9842.796165  29958.160829      -.035116                    
P 20  -5844.878393 -18755.620412 -18049.071476     49.023239                    
V 20  20590.596509   9721.715476 -16836.515365      -.001469                    
P 21  13529.905685  10429.180070  20824.702111   -110.684619                    
V 21 -22450.364755  12325.417862   7942.171299      -.027129                    
P 22  23756.600527  10188.922026  -6148.050061    156.637403                    
V 22   4786.624801   7333.971887  29744.409239      -.005182                    
P 23   -313.131954 -26284.861362   2175.574808    337.074716                    
V 23   3050.811089  -2655.124144 -31933.361942      -.021663                    
P 24   8275.084792 -17845.208365 -17683.474931    349.349039                    
V 24  21409.912812  -7749.573585  18052.643910       .033921                    
P 25  15204.767054  18534.681549 -11446.671837    -58.875444                    
V 25 -13630.489176  -5503.077907 -27057.224505      -.022677                    
P 26 -11648.855797  18130.720364  14663.670416    -76.554396                    
V 26    242.413928 -19840.860306  24213.219860      -.087122                    
P 27 -14986.366939  17989.458414 -11616.909131    218.775023                    
V 27 -14793.444492   6189.503048  27347.059955       .036904                    
P 28 -22894.004679 -13394.267025  -2665.161823     10.288110                    
V 28  -2029.134834  -4066.765284  31606.075151       .018538                    
P 29   5970.453038  23532.666448  10891.272394    171.886882                    
V 29  -3351.685331  13500.313993 -27490.411834       .028640                    
P 30  24111.904044   6940.623462   8355.565697    306.405356                    
V 30   8378.843587   7884.076637 -29244.433592       .032602                    
P 31  24529.082455  -7302.474449  -7247.727815     20.613016                    
V 31  -7422.443959   6155.357976 -30230.738798       .040201                    
P 32   3660.521986 -15666.695816 -20893.005196   -157.133852                    
V 32  22057.297364  15888.237003  -7549.441863      -.081769                    
EOF
